{"fetched_at":"2026-03-30T06:02:59Z","count":15439,"tles":[{"name":"APRIZESAT 5","line1":"1 37792U 11044E   26087.74218396  .00001198  00000+0  15914-3 0  9992","line2":"2 37792  98.2414  18.5335 0050974 261.7105  97.8324 14.80910849786884","category":"Other"}]}